{"type": "FeatureCollection", "features": [ {"type": "Feature", "properties": {"norad_id": 37867, "name": "COSMOS 2476 (744)", "group": "gnss", "lat": -31.254578535211955, "lon": -84.6444757910157, "alt_km": 19076.15468386021, "timestamp": "2025-12-16T05:49:09.456524+00:00", "meta": {"OBJECT_NAME": "COSMOS 2476 (744)", "OBJECT_ID": "2011-064A", "EPOCH": "2025-12-15T11:25:46.908768", "MEAN_MOTION": 2.1310152, "ECCENTRICITY": 0.00240578, "INCLINATION": 65.1644, "RA_OF_ASC_NODE": 79.0785, "ARG_OF_PERICENTER": 234.0946, "MEAN_ANOMALY": 112.9924, "EPHEMERIS_TYPE": 0, "CLASSIFICATION_TYPE": "U", "NORAD_CAT_ID": 37867, "ELEMENT_SET_NO": 999, "REV_AT_EPOCH": 10984, "BSTAR": 0, "MEAN_MOTION_DOT": -5.6e-07, "MEAN_MOTION_DDOT": 0}, "tle": {"line1": "1 37867U 11064A   25349.47623737 -.00000056  00000+0  00000+0 0  9995", "line2": "2 37867  65.1644  79.0785 0024057 234.0946 112.9924  2.13101520109846"}}, "geometry": {"type": "Point", "coordinates": [-84.6444757910157, -31.254578535211955]}}, {"type": "Feature", "properties": {"norad_id": 37868, "name": "COSMOS 2477 (745)", "group": "gnss", "lat": 32.18563056388032, "lon": 96.04892800192151, "alt_km": 19177.2852582306, "timestamp": "2025-12-16T05:49:09.456536+00:00", "meta": {"OBJECT_NAME": "COSMOS 2477 (745)", "OBJECT_ID": "2011-064B", "EPOCH": "2025-12-15T06:06:12.573216", "MEAN_MOTION": 2.1310289, "ECCENTRICITY": 0.00211455, "INCLINATION": 65.1707, "RA_OF_ASC_NODE": 79.1637, "ARG_OF_PERICENTER": 234.5873, "MEAN_ANOMALY": 123.1925, "EPHEMERIS_TYPE": 0, "CLASSIFICATION_TYPE": "U", "NORAD_CAT_ID": 37868, "ELEMENT_SET_NO": 999, "REV_AT_EPOCH": 10983, "BSTAR": 0, "MEAN_MOTION_DOT": -5.6e-07, "MEAN_MOTION_DDOT": 0}, "tle": {"line1": "1 37868U 11064B   25349.25431219 -.00000056  00000+0  00000+0 0  9994", "line2": "2 37868  65.1707  79.1637 0021145 234.5873 123.1925  2.13102890109838"}}, "geometry": {"type": "Point", "coordinates": [96.04892800192151, 32.18563056388032]}}, {"type": "Feature", "properties": {"norad_id": 37869, "name": "COSMOS 2475 (743)", "group": "gnss", "lat": -7.194048875364717, "lon": 75.81291530875409, "alt_km": 19146.909971996185, "timestamp": "2025-12-16T05:49:09.456548+00:00", "meta": {"OBJECT_NAME": "COSMOS 2475 (743)", "OBJECT_ID": "2011-064C", "EPOCH": "2025-12-15T18:53:44.988864", "MEAN_MOTION": 2.13101578, "ECCENTRICITY": 0.00263291, "INCLINATION": 65.178, "RA_OF_ASC_NODE": 79.1657, "ARG_OF_PERICENTER": 248.6854, "MEAN_ANOMALY": 113.9368, "EPHEMERIS_TYPE": 0, "CLASSIFICATION_TYPE": "U", "NORAD_CAT_ID": 37869, "ELEMENT_SET_NO": 999, "REV_AT_EPOCH": 10986, "BSTAR": 0, "MEAN_MOTION_DOT": -5.6e-07, "MEAN_MOTION_DDOT": 0}, "tle": {"line1": "1 37869U 11064C   25349.78732626 -.00000056  00000+0  00000+0 0  9999", "line2": "2 37869  65.1780  79.1657 0026329 248.6854 113.9368  2.13101578109869"}}, "geometry": {"type": "Point", "coordinates": [75.81291530875409, -7.194048875364717]}}, {"type": "Feature", "properties": {"norad_id": 37948, "name": "BEIDOU-2 IGSO-5 (C10)", "group": "gnss", "lat": -5.388329115765463, "lon": -91.07540158503951, "alt_km": 36080.46744163055, "timestamp": "2025-12-16T05:49:09.456560+00:00", "meta": {"OBJECT_NAME": "BEIDOU-2 IGSO-5 (C10)", "OBJECT_ID": "2011-073A", "EPOCH": "2025-12-12T18:24:47.608416", "MEAN_MOTION": 1.00291151, "ECCENTRICITY": 0.01101752, "INCLINATION": 48.0199, "RA_OF_ASC_NODE": 273.857, "ARG_OF_PERICENTER": 222.308, "MEAN_ANOMALY": 314.7254, "EPHEMERIS_TYPE": 0, "CLASSIFICATION_TYPE": "U", "NORAD_CAT_ID": 37948, "ELEMENT_SET_NO": 999, "REV_AT_EPOCH": 5126, "BSTAR": 0, "MEAN_MOTION_DOT": -2.21e-06, "MEAN_MOTION_DDOT": 0}, "tle": {"line1": "1 37948U 11073A   25346.76721769 -.00000221  00000+0  00000+0 0  9992", "line2": "2 37948  48.0199 273.8570 0110175 222.3080 314.7254  1.00291151 51268"}}, "geometry": {"type": "Point", "coordinates": [-91.07540158503951, -5.388329115765463]}}, {"type": "Feature", "properties": {"norad_id": 37951, "name": "LUCH 5A (SDCM/PRN 140)", "group": "gnss", "lat": -8.234025585498976, "lon": -20.475441138640647, "alt_km": 35782.12688251502, "timestamp": "2025-12-16T05:49:09.456579+00:00", "meta": {"OBJECT_NAME": "LUCH 5A (SDCM/PRN 140)", "OBJECT_ID": "2011-074B", "EPOCH": "2025-12-15T22:44:34.969344", "MEAN_MOTION": 1.00275624, "ECCENTRICITY": 0.00053572, "INCLINATION": 8.2878, "RA_OF_ASC_NODE": 76.5392, "ARG_OF_PERICENTER": 183.0637, "MEAN_ANOMALY": 333.4936, "EPHEMERIS_TYPE": 0, "CLASSIFICATION_TYPE": "U", "NORAD_CAT_ID": 37951, "ELEMENT_SET_NO": 999, "REV_AT_EPOCH": 5121, "BSTAR": 0, "MEAN_MOTION_DOT": -3.1e-07, "MEAN_MOTION_DDOT": 0}, "tle": {"line1": "1 37951U 11074B   25349.94762696 -.00000031  00000+0  00000+0 0  9993", "line2": "2 37951   8.2878  76.5392 0005357 183.0637 333.4936  1.00275624 51217"}}, "geometry": {"type": "Point", "coordinates": [-20.475441138640647, -8.234025585498976]}}, {"type": "Feature", "properties": {"norad_id": 38091, "name": "BEIDOU-2 G5 (C05)", "group": "gnss", "lat": 1.0214033703554328, "lon": -128.83462222245316, "alt_km": 35765.38732128211, "timestamp": "2025-12-16T05:49:09.456592+00:00", "meta": {"OBJECT_NAME": "BEIDOU-2 G5 (C05)", "OBJECT_ID": "2012-008A", "EPOCH": "2025-12-15T20:30:55.266912", "MEAN_MOTION": 1.00277211, "ECCENTRICITY": 0.00124516, "INCLINATION": 3.1167, "RA_OF_ASC_NODE": 70.7015, "ARG_OF_PERICENTER": 229.5483, "MEAN_ANOMALY": 151.0797, "EPHEMERIS_TYPE": 0, "CLASSIFICATION_TYPE": "U", "NORAD_CAT_ID": 38091, "ELEMENT_SET_NO": 999, "REV_AT_EPOCH": 5053, "BSTAR": 0, "MEAN_MOTION_DOT": 7.5e-07, "MEAN_MOTION_DDOT": 0}, "tle": {"line1": "1 38091U 12008A   25349.85480633  .00000075  00000+0  00000+0 0  9992", "line2": "2 38091   3.1167  70.7015 0012451 229.5483 151.0797  1.00277211 50531"}}, "geometry": {"type": "Point", "coordinates": [-128.83462222245316, 1.0214033703554328]}}, {"type": "Feature", "properties": {"norad_id": 38250, "name": "BEIDOU-2 M3 (C11)", "group": "gnss", "lat": 53.250761914343585, "lon": 66.03575956051996, "alt_km": 21588.76350251306, "timestamp": "2025-12-16T05:49:09.456606+00:00", "meta": {"OBJECT_NAME": "BEIDOU-2 M3 (C11)", "OBJECT_ID": "2012-018A", "EPOCH": "2025-12-13T22:30:51.861600", "MEAN_MOTION": 1.86229879, "ECCENTRICITY": 0.00242907, "INCLINATION": 55.9188, "RA_OF_ASC_NODE": 311.1166, "ARG_OF_PERICENTER": 274.3199, "MEAN_ANOMALY": 85.3911, "EPHEMERIS_TYPE": 0, "CLASSIFICATION_TYPE": "U", "NORAD_CAT_ID": 38250, "ELEMENT_SET_NO": 999, "REV_AT_EPOCH": 9249, "BSTAR": 0, "MEAN_MOTION_DOT": -9.6e-07, "MEAN_MOTION_DDOT": 0}, "tle": {"line1": "1 38250U 12018A   25347.93810025 -.00000096  00000+0  00000+0 0  9993", "line2": "2 38250  55.9188 311.1166 0024290 274.3199  85.3911  1.86229879 92490"}}, "geometry": {"type": "Point", "coordinates": [66.03575956051996, 53.250761914343585]}}, {"type": "Feature", "properties": {"norad_id": 38251, "name": "BEIDOU-2 M4 (C12)", "group": "gnss", "lat": 24.250738640712086, "lon": 112.43167361483818, "alt_km": 21551.463329693484, "timestamp": "2025-12-16T05:49:09.456617+00:00", "meta": {"OBJECT_NAME": "BEIDOU-2 M4 (C12)", "OBJECT_ID": "2012-018B", "EPOCH": "2025-12-13T07:59:48.422112", "MEAN_MOTION": 1.86229462, "ECCENTRICITY": 0.00154528, "INCLINATION": 55.8208, "RA_OF_ASC_NODE": 310.3658, "ARG_OF_PERICENTER": 277.4494, "MEAN_ANOMALY": 82.3644, "EPHEMERIS_TYPE": 0, "CLASSIFICATION_TYPE": "U", "NORAD_CAT_ID": 38251, "ELEMENT_SET_NO": 999, "REV_AT_EPOCH": 9248, "BSTAR": 0, "MEAN_MOTION_DOT": -9.5e-07, "MEAN_MOTION_DDOT": 0}, "tle": {"line1": "1 38251U 12018B   25347.33319933 -.00000095  00000+0  00000+0 0  9999", "line2": "2 38251  55.8208 310.3658 0015452 277.4494  82.3644  1.86229462 92489"}}, "geometry": {"type": "Point", "coordinates": [112.43167361483818, 24.250738640712086]}}, {"type": "Feature", "properties": {"norad_id": 38652, "name": "SES-5 (EGNOS/PRN 136)", "group": "gnss", "lat": -0.0536653133628471, "lon": 177.36719737366784, "alt_km": 35786.46419437702, "timestamp": "2025-12-16T05:49:09.456630+00:00", "meta": {"OBJECT_NAME": "SES-5 (EGNOS/PRN 136)", "OBJECT_ID": "2012-036A", "EPOCH": "2025-12-15T01:25:36.857568", "MEAN_MOTION": 1.00271394, "ECCENTRICITY": 0.00019711, "INCLINATION": 0.0577, "RA_OF_ASC_NODE": 304.8332, "ARG_OF_PERICENTER": 324.9931, "MEAN_ANOMALY": 200.5243, "EPHEMERIS_TYPE": 0, "CLASSIFICATION_TYPE": "U", "NORAD_CAT_ID": 38652, "ELEMENT_SET_NO": 999, "REV_AT_EPOCH": 4261, "BSTAR": 0, "MEAN_MOTION_DOT": 5.4e-07, "MEAN_MOTION_DDOT": 0}, "tle": {"line1": "1 38652U 12036A   25349.05945437  .00000054  00000+0  00000+0 0  9993", "line2": "2 38652   0.0577 304.8332 0001971 324.9931 200.5243  1.00271394 42613"}}, "geometry": {"type": "Point", "coordinates": [177.36719737366784, -0.0536653133628471]}}, {"type": "Feature", "properties": {"norad_id": 38775, "name": "BEIDOU-2 M6 (C14)", "group": "gnss", "lat": -13.019711742141684, "lon": 60.1243617485417, "alt_km": 21498.633047639214, "timestamp": "2025-12-16T05:49:09.456655+00:00", "meta": {"OBJECT_NAME": "BEIDOU-2 M6 (C14)", "OBJECT_ID": "2012-050B", "EPOCH": "2025-12-14T02:49:55.180128", "MEAN_MOTION": 1.86230875, "ECCENTRICITY": 0.0011244, "INCLINATION": 56.3796, "RA_OF_ASC_NODE": 69.0216, "ARG_OF_PERICENTER": 344.0149, "MEAN_ANOMALY": 15.9678, "EPHEMERIS_TYPE": 0, "CLASSIFICATION_TYPE": "U", "NORAD_CAT_ID": 38775, "ELEMENT_SET_NO": 999, "REV_AT_EPOCH": 8986, "BSTAR": 0, "MEAN_MOTION_DOT": -8.2e-07, "MEAN_MOTION_DDOT": 0}, "tle": {"line1": "1 38775U 12050B   25348.11799977 -.00000082  00000+0  00000+0 0  9999", "line2": "2 38775  56.3796  69.0216 0011244 344.0149  15.9678  1.86230875 89866"}}, "geometry": {"type": "Point", "coordinates": [60.1243617485417, -13.019711742141684]}}]}